NORAD_CAT_ID,OBJECT_NAME,OBJECT_TYPE,EPOCH,MEAN_MOTION,ECCENTRICITY,INCLINATION,RA_OF_ASC_NODE,ARG_OF_PERICENTER,MEAN_ANOMALY,BSTAR,MEAN_MOTION_DOT,MEAN_MOTION_DDOT,TLE_LINE0,TLE_LINE1,TLE_LINE2,SEMIMAJOR_AXIS,PERIOD,APOGEE,PERIGEE,DECAYED
51717.0,STARLINK-3445,PAYLOAD,2024-04-05 16:13:03,15.08840485,0.0001318,53.218,245.159,85.3288,274.7854,4.8055e-05,4.77e-06,0.0,0 STARLINK-3445,1 51717U 22016D   24096.67573561  .00000477  00000-0  48055-4 0  9997,2 51717  53.2180 245.1590 0001318  85.3288 274.7854 15.08840485117295,6917.879,95.438,540.656,538.832,0.0
51717.0,STARLINK-3445,PAYLOAD,2024-04-06 03:20:44,15.08848572,0.0001431,53.2178,243.0766,87.8583,272.2573,9.2843e-05,1.19e-05,0.0,0 STARLINK-3445,1 51717U 22016D   24097.13940743  .00001190  00000-0  92843-4 0  9996,2 51717  53.2178 243.0766 0001431  87.8583 272.2573 15.08848572118506,6917.854,95.437,540.709,538.729,0.0
51717.0,STARLINK-3445,PAYLOAD,2024-04-06 16:03:50,15.08829233,0.0001153,53.2168,240.6997,80.4383,279.674,-6.2077e-05,-1.275e-05,0.0,0 STARLINK-3445,1 51717U 22016D   24097.66933854 -.00001275  00000-0 -62077-4 0  9991,2 51717  53.2168 240.6997 0001153  80.4383 279.6740 15.08829233118580,6917.913,95.438,540.576,538.981,0.0
51717.0,STARLINK-3445,PAYLOAD,2024-04-07 19:05:24,15.08834736,0.0001672,53.2186,235.644,85.9727,274.1457,6.514e-05,7.49e-06,0.0,0 STARLINK-3445,1 51717U 22016D   24098.79542063  .00000749  00000-0  65140-4 0  9991,2 51717  53.2186 235.6440 0001672  85.9727 274.1457 15.08834736118753,6917.896,95.438,540.918,538.605,0.0
51717.0,STARLINK-3445,PAYLOAD,2024-04-08 01:26:56,15.08849311,0.0001187,53.2173,234.4542,78.9514,281.1611,0.0002429,3.581e-05,0.0,0 STARLINK-3445,1 51717U 22016D   24099.06037340  .00003581  00000-0  24290-3 0  9996,2 51717  53.2173 234.4542 0001187  78.9514 281.1611 15.08849311118795,6917.852,95.437,540.538,538.896,0.0
51717.0,STARLINK-3445,PAYLOAD,2024-04-09 01:17:43,15.08838394,0.0001684,53.2164,229.994,85.8621,274.2563,0.00011942,1.613e-05,0.0,0 STARLINK-3445,1 51717U 22016D   24100.05398129  .00001613  00000-0  11942-3 0  9997,2 51717  53.2164 229.9940 0001684  85.8621 274.2563 15.08838394118949,6917.885,95.438,540.915,538.585,0.0
51717.0,STARLINK-3445,PAYLOAD,2024-04-09 07:39:16,15.08837777,0.000212,53.2166,228.8047,86.019,274.1044,0.00013044,1.788e-05,0.0,0 STARLINK-3445,1 51717U 22016D   24100.31894343  .00001788  00000-0  13044-3 0  9993,2 51717  53.2166 228.8047 0002120  86.0190 274.1044 15.08837777117842,6917.887,95.438,541.219,538.286,0.0
51717.0,STARLINK-3445,PAYLOAD,2024-04-09 15:36:12,15.08838934,0.0002166,53.2219,227.3178,90.0748,270.0493,4.7871e-05,4.74e-06,0.0,0 STARLINK-3445,1 51717U 22016D   24100.65014413  .00000474  00000-0  47871-4 0  9999,2 51717  53.2219 227.3178 0002166  90.0748 270.0493 15.08838934117898,6917.884,95.438,541.247,538.25,0.0
51717.0,STARLINK-3445,PAYLOAD,2024-04-10 07:30:03,15.08845672,0.0002412,53.2212,224.3443,90.1385,269.9883,-0.00015375,-2.735e-05,0.0,0 STARLINK-3445,1 51717U 22016D   24101.31254078 -.00002735  00000-0 -15375-3 0  9993,2 51717  53.2212 224.3443 0002412  90.1385 269.9883 15.08845672119131,6917.863,95.437,541.397,538.059,0.0
51717.0,STARLINK-3445,PAYLOAD,2024-04-10 17:02:22,15.08837436,0.0002143,53.2223,222.5612,92.4405,267.6833,0.00010484,1.381e-05,0.0,0 STARLINK-3445,1 51717U 22016D   24101.70998616  .00001381  00000-0  10484-3 0  9999,2 51717  53.2223 222.5612 0002143  92.4405 267.6833 15.08837436119195,6917.888,95.438,541.236,538.271,0.0
51717.0,STARLINK-3445,PAYLOAD,2024-04-11 00:59:17,15.0884481,9.05e-05,53.2193,221.074,83.1145,276.995,0.00057249,8.836e-05,0.0,0 STARLINK-3445,1 51717U 22016D   24102.04117809  .00008836  00000-0  57249-3 0  9996,2 51717  53.2193 221.0740 0000905  83.1145 276.9950 15.08844810119242,6917.866,95.437,540.357,539.105,0.0
51717.0,STARLINK-3445,PAYLOAD,2024-04-11 13:42:23,15.08827066,0.0001238,53.2187,218.6945,91.9254,268.188,-9.053e-05,-1.728e-05,0.0,0 STARLINK-3445,1 51717U 22016D   24102.57111019 -.00001728  00000-0 -90530-4 0  9997,2 51717  53.2187 218.6945 0001238  91.9254 268.1880 15.08827066119320,6917.92,95.438,540.641,538.928,0.0
51717.0,STARLINK-3445,PAYLOAD,2024-04-12 13:33:11,15.08839051,6.92e-05,53.217,214.2332,96.7846,263.3225,4.6542e-05,4.53e-06,0.0,0 STARLINK-3445,1 51717U 22016D   24103.56471418  .00000453  00000-0  46542-4 0  9995,2 51717  53.2170 214.2332 0000692  96.7846 263.3225 15.08839051118334,6917.883,95.438,540.227,539.27,0.0
51717.0,STARLINK-3445,PAYLOAD,2024-04-13 13:23:58,15.08863627,0.0001084,53.2161,209.7736,84.8554,275.2562,0.00096005,0.00015034,0.0,0 STARLINK-3445,1 51717U 22016D   24104.55831509  .00015034  00000-0  96005-3 0  9995,2 51717  53.2161 209.7736 0001084  84.8554 275.2562 15.08863627118489,6917.808,95.436,540.423,538.923,0.0
51717.0,STARLINK-3445,PAYLOAD,2024-04-14 11:39:21,15.08856966,0.0001368,53.2178,205.6153,116.0729,244.0404,0.00020524,2.981e-05,0.0,0 STARLINK-3445,1 51717U 22016D   24105.48566557  .00002981  00000-0  20524-3 0  9996,2 51717  53.2178 205.6153 0001368 116.0729 244.0404 15.08856966119761,6917.829,95.436,540.64,538.747,0.0
51717.0,STARLINK-3445,PAYLOAD,2024-04-14 13:14:44,15.08855266,0.0001074,53.2166,205.3139,90.3615,269.75,0.00018474,2.655e-05,0.0,0 STARLINK-3445,1 51717U 22016D   24105.55190662  .00002655  00000-0  18474-3 0  9993,2 51717  53.2166 205.3139 0001074  90.3615 269.7500 15.08855266118639,6917.834,95.437,540.442,538.956,0.0
51717.0,STARLINK-3445,PAYLOAD,2024-04-15 13:05:31,15.08857248,0.0001148,53.2177,200.8468,100.6294,259.4827,-9.3426e-06,-4.37e-06,0.0,0 STARLINK-3445,1 51717U 22016D   24106.54549855 -.00000437  00000-0 -93426-5 0  9995,2 51717  53.2177 200.8468 0001148 100.6294 259.4827 15.08857248119929,6917.828,95.436,540.487,538.899,0.0
51717.0,STARLINK-3445,PAYLOAD,2024-04-15 14:40:53,15.08867699,0.0001326,53.2183,200.551,111.0993,249.0141,-0.00015091,-2.691e-05,0.0,0 STARLINK-3445,1 51717U 22016D   24106.61173471 -.00002691  00000-0 -15091-3 0  9994,2 51717  53.2183 200.5510 0001326 111.0993 249.0141 15.08867699118790,6917.796,95.436,540.578,538.743,0.0
51717.0,STARLINK-3445,PAYLOAD,2024-04-15 16:16:17,15.08860762,0.0001376,53.2184,200.2548,113.7634,246.3503,-6.4282e-05,-1.311e-05,0.0,0 STARLINK-3445,1 51717U 22016D   24106.67797586 -.00001311  00000-0 -64282-4 0  9994,2 51717  53.2184 200.2548 0001376 113.7634 246.3503 15.08860762118803,6917.817,95.436,540.634,538.73,0.0
51717.0,STARLINK-3445,PAYLOAD,2024-04-16 12:56:18,15.08844619,0.0001205,53.2173,196.3909,116.5724,243.5392,-6.3823e-05,-1.304e-05,0.0,0 STARLINK-3445,1 51717U 22016D   24107.53910422 -.00001304  00000-0 -63823-4 0  9998,2 51717  53.2173 196.3909 0001205 116.5724 243.5392 15.08844619120079,6917.866,95.437,540.565,538.898,0.0
51717.0,STARLINK-3445,PAYLOAD,2024-04-17 11:11:43,15.08829647,0.0001398,53.218,192.2325,102.5853,257.5296,-1.3539e-06,-3.09e-06,0.0,0 STARLINK-3445,1 51717U 22016D   24108.46647537 -.00000309  00000-0 -13539-5 0  9999,2 51717  53.2180 192.2325 0001398 102.5853 257.5296 15.08829647120213,6917.912,95.438,540.744,538.81,0.0
51717.0,STARLINK-3445,PAYLOAD,2024-04-18 12:37:53,15.08831047,0.0001347,53.2174,187.4711,83.0877,277.0268,0.00013409,1.846e-05,0.0,0 STARLINK-3445,1 51717U 22016D   24109.52631942  .00001846  00000-0  13409-3 0  9999,2 51717  53.2174 187.4711 0001347  83.0877 277.0268 15.08831047120374,6917.908,95.438,540.705,538.841,0.0
51717.0,STARLINK-3445,PAYLOAD,2024-04-19 12:28:41,15.08829326,0.0001658,53.2186,183.0112,74.1389,285.9786,0.00020316,2.946e-05,0.0,0 STARLINK-3445,1 51717U 22016D   24110.51992916  .00002946  00000-0  20316-3 0  9998,2 51717  53.2186 183.0112 0001658  74.1389 285.9786 15.08829326119387,6917.913,95.438,540.925,538.631,0.0
51717.0,STARLINK-3445,PAYLOAD,2024-04-20 10:44:04,15.08861483,0.0002152,53.2168,178.8536,57.419,302.7009,0.00038328,5.821e-05,0.0,0 STARLINK-3445,1 51717U 22016D   24111.44727289  .00005821  00000-0  38328-3 0  9997,2 51717  53.2168 178.8536 0002152  57.4190 302.7009 15.08861483120662,6917.815,95.436,541.168,538.191,0.0
51717.0,STARLINK-3445,PAYLOAD,2024-04-20 13:54:50,15.0886561,0.0002142,53.2169,178.2562,58.4717,301.6484,0.00043234,6.604e-05,0.0,0 STARLINK-3445,1 51717U 22016D   24111.57974944  .00006604  00000-0  43234-3 0  9995,2 51717  53.2169 178.2562 0002142  58.4717 301.6484 15.08865610119547,6917.802,95.436,541.149,538.185,0.0
51717.0,STARLINK-3445,PAYLOAD,2024-04-21 04:13:20,15.08820425,9.95e-05,53.2169,175.5713,104.4027,255.7076,-0.00032533,-5.459e-05,0.0,0 STARLINK-3445,1 51717U 22016D   24112.17593140 -.00005459  00000-0 -32533-3 0  9996,2 51717  53.2169 175.5713 0000995 104.4027 255.7076 15.08820425120773,6917.94,95.439,540.494,539.117,0.0
51717.0,STARLINK-3445,PAYLOAD,2024-04-21 13:45:38,15.08843826,0.0001328,53.2171,173.7883,102.8429,257.2712,0.00011223,1.499e-05,0.0,0 STARLINK-3445,1 51717U 22016D   24112.57336188  .00001499  00000-0  11223-3 0  9998,2 51717  53.2171 173.7883 0001328 102.8429 257.2712 15.08843826119696,6917.869,95.437,540.652,538.815,0.0
51717.0,STARLINK-3445,PAYLOAD,2024-04-22 10:25:39,15.08846972,0.0001431,53.2165,169.9238,83.8316,276.2839,0.00035547,5.375e-05,0.0,0 STARLINK-3445,1 51717U 22016D   24113.43448337  .00005375  00000-0  35547-3 0  9996,2 51717  53.2165 169.9238 0001431  83.8316 276.2839 15.08846972119829,6917.859,95.437,540.714,538.734,0.0
51717.0,STARLINK-3445,PAYLOAD,2024-04-23 10:16:26,15.08842013,0.000129,53.2167,165.4634,95.1574,264.9565,7.7222e-05,9.41e-06,0.0,0 STARLINK-3445,1 51717U 22016D   24114.42808272  .00000941  00000-0  77222-4 0  9995,2 51717  53.2167 165.4634 0001290  95.1574 264.9565 15.08842013121114,6917.874,95.437,540.632,538.847,0.0
51717.0,STARLINK-3445,PAYLOAD,2024-04-24 10:07:13,15.08845783,0.0001713,53.2174,161.0071,101.963,258.1554,0.00014935,2.09e-05,0.0,0 STARLINK-3445,1 51717U 22016D   24115.42168264  .00002090  00000-0  14935-3 0  9994,2 51717  53.2174 161.0071 0001713 101.9630 258.1554 15.08845783120128,6917.863,95.437,540.913,538.543,0.0
